[{"OBJECT_NAME":"UNKNOWN","OBJECT_ID":"","EPOCH":"2026-03-03T15:40:17.374368","MEAN_MOTION":14.58923513,"ECCENTRICITY":0.0056646,"INCLINATION":74.0067,"RA_OF_ASC_NODE":186.2132,"ARG_OF_PERICENTER":329.6019,"MEAN_ANOMALY":30.1865,"EPHEMERIS_TYPE":0,"CLASSIFICATION_TYPE":"U","NORAD_CAT_ID":82432,"ELEMENT_SET_NO":999,"REV_AT_EPOCH":49470,"BSTAR":0.00051427,"MEAN_MOTION_DOT":2.434e-5,"MEAN_MOTION_DDOT":0},{"OBJECT_NAME":"UNKNOWN","OBJECT_ID":"","EPOCH":"2026-03-03T05:46:56.078976","MEAN_MOTION":15.04999606,"ECCENTRICITY":0.0006895,"INCLINATION":85.8763,"RA_OF_ASC_NODE":156.2988,"ARG_OF_PERICENTER":343.5278,"MEAN_ANOMALY":16.5731,"EPHEMERIS_TYPE":0,"CLASSIFICATION_TYPE":"U","NORAD_CAT_ID":82448,"ELEMENT_SET_NO":999,"REV_AT_EPOCH":44914,"BSTAR":0.00051019,"MEAN_MOTION_DOT":7.271e-5,"MEAN_MOTION_DDOT":0},{"OBJECT_NAME":"UNKNOWN","OBJECT_ID":"","EPOCH":"2026-03-02T03:53:44.435040","MEAN_MOTION":12.39709671,"ECCENTRICITY":0.0094087,"INCLINATION":102.1911,"RA_OF_ASC_NODE":22.5113,"ARG_OF_PERICENTER":60.5465,"MEAN_ANOMALY":300.4946,"EPHEMERIS_TYPE":0,"CLASSIFICATION_TYPE":"U","NORAD_CAT_ID":82453,"ELEMENT_SET_NO":999,"REV_AT_EPOCH":55590,"BSTAR":0.0002741,"MEAN_MOTION_DOT":-8.0e-8,"MEAN_MOTION_DDOT":0},{"OBJECT_NAME":"UNKNOWN","OBJECT_ID":"","EPOCH":"2026-03-01T23:57:10.341504","MEAN_MOTION":13.55829076,"ECCENTRICITY":0.004437,"INCLINATION":99.3518,"RA_OF_ASC_NODE":83.5341,"ARG_OF_PERICENTER":354.6269,"MEAN_ANOMALY":5.4388,"EPHEMERIS_TYPE":0,"CLASSIFICATION_TYPE":"U","NORAD_CAT_ID":82484,"ELEMENT_SET_NO":999,"REV_AT_EPOCH":60137,"BSTAR":0.00032687,"MEAN_MOTION_DOT":1.88e-6,"MEAN_MOTION_DDOT":0},{"OBJECT_NAME":"UNKNOWN","OBJECT_ID":"","EPOCH":"2026-03-03T10:10:35.213952","MEAN_MOTION":14.8953987,"ECCENTRICITY":0.0005728,"INCLINATION":74.005,"RA_OF_ASC_NODE":220.6544,"ARG_OF_PERICENTER":344.3021,"MEAN_ANOMALY":15.7982,"EPHEMERIS_TYPE":0,"CLASSIFICATION_TYPE":"U","NORAD_CAT_ID":82494,"ELEMENT_SET_NO":999,"REV_AT_EPOCH":9696,"BSTAR":0.0027015,"MEAN_MOTION_DOT":0.0002583,"MEAN_MOTION_DDOT":0},{"OBJECT_NAME":"UNKNOWN","OBJECT_ID":"","EPOCH":"2026-02-26T18:17:59.837568","MEAN_MOTION":14.19147272,"ECCENTRICITY":0.0118063,"INCLINATION":70.965,"RA_OF_ASC_NODE":202.8689,"ARG_OF_PERICENTER":358.4355,"MEAN_ANOMALY":1.6382,"EPHEMERIS_TYPE":0,"CLASSIFICATION_TYPE":"U","NORAD_CAT_ID":82500,"ELEMENT_SET_NO":999,"REV_AT_EPOCH":62973,"BSTAR":0.001353,"MEAN_MOTION_DOT":2.989e-5,"MEAN_MOTION_DDOT":0},{"OBJECT_NAME":"UNKNOWN","OBJECT_ID":"","EPOCH":"2026-03-03T08:40:56.372448","MEAN_MOTION":14.36007564,"ECCENTRICITY":0.0132172,"INCLINATION":73.2828,"RA_OF_ASC_NODE":27.0019,"ARG_OF_PERICENTER":153.233,"MEAN_ANOMALY":2.1456,"EPHEMERIS_TYPE":0,"CLASSIFICATION_TYPE":"U","NORAD_CAT_ID":82524,"ELEMENT_SET_NO":999,"REV_AT_EPOCH":58860,"BSTAR":0.0010996,"MEAN_MOTION_DOT":3.499e-5,"MEAN_MOTION_DDOT":0},{"OBJECT_NAME":"UNKNOWN","OBJECT_ID":"","EPOCH":"2026-03-03T11:10:25.280832","MEAN_MOTION":13.41190724,"ECCENTRICITY":0.0238752,"INCLINATION":99.7802,"RA_OF_ASC_NODE":148.2906,"ARG_OF_PERICENTER":44.198,"MEAN_ANOMALY":20.358,"EPHEMERIS_TYPE":0,"CLASSIFICATION_TYPE":"U","NORAD_CAT_ID":82529,"ELEMENT_SET_NO":999,"REV_AT_EPOCH":60056,"BSTAR":0.00064515,"MEAN_MOTION_DOT":3.81e-6,"MEAN_MOTION_DDOT":0},{"OBJECT_NAME":"UNKNOWN","OBJECT_ID":"","EPOCH":"2026-02-28T08:19:35.642784","MEAN_MOTION":13.90885057,"ECCENTRICITY":0.0011177,"INCLINATION":99.9959,"RA_OF_ASC_NODE":12.6774,"ARG_OF_PERICENTER":93.7672,"MEAN_ANOMALY":58.5374,"EPHEMERIS_TYPE":0,"CLASSIFICATION_TYPE":"U","NORAD_CAT_ID":82560,"ELEMENT_SET_NO":999,"REV_AT_EPOCH":62265,"BSTAR":0.0010557,"MEAN_MOTION_DOT":1.272e-5,"MEAN_MOTION_DDOT":0},{"OBJECT_NAME":"UNKNOWN","OBJECT_ID":"","EPOCH":"2026-03-01T01:38:24.702144","MEAN_MOTION":14.36105612,"ECCENTRICITY":0.0098523,"INCLINATION":66.7698,"RA_OF_ASC_NODE":301.6808,"ARG_OF_PERICENTER":253.0275,"MEAN_ANOMALY":106.0011,"EPHEMERIS_TYPE":0,"CLASSIFICATION_TYPE":"U","NORAD_CAT_ID":82597,"ELEMENT_SET_NO":999,"REV_AT_EPOCH":64022,"BSTAR":0.00047954,"MEAN_MOTION_DOT":1.389e-5,"MEAN_MOTION_DDOT":0},{"OBJECT_NAME":"UNKNOWN","OBJECT_ID":"","EPOCH":"2026-02-25T13:10:53.598144","MEAN_MOTION":14.49523754,"ECCENTRICITY":0.0037817,"INCLINATION":74.0253,"RA_OF_ASC_NODE":103.2105,"ARG_OF_PERICENTER":26.2101,"MEAN_ANOMALY":334.0962,"EPHEMERIS_TYPE":0,"CLASSIFICATION_TYPE":"U","NORAD_CAT_ID":82617,"ELEMENT_SET_NO":999,"REV_AT_EPOCH":64766,"BSTAR":0.00013284,"MEAN_MOTION_DOT":4.86e-6,"MEAN_MOTION_DDOT":0},{"OBJECT_NAME":"UNKNOWN","OBJECT_ID":"","EPOCH":"2026-03-03T07:49:01.987680","MEAN_MOTION":13.1643108,"ECCENTRICITY":0.0016132,"INCLINATION":82.4734,"RA_OF_ASC_NODE":191.1604,"ARG_OF_PERICENTER":245.724,"MEAN_ANOMALY":144.0414,"EPHEMERIS_TYPE":0,"CLASSIFICATION_TYPE":"U","NORAD_CAT_ID":82627,"ELEMENT_SET_NO":999,"REV_AT_EPOCH":58943,"BSTAR":0.0018517,"MEAN_MOTION_DOT":7.19e-6,"MEAN_MOTION_DDOT":0},{"OBJECT_NAME":"UNKNOWN","OBJECT_ID":"","EPOCH":"2026-03-03T13:11:43.764576","MEAN_MOTION":14.07579066,"ECCENTRICITY":0.0136834,"INCLINATION":98.9746,"RA_OF_ASC_NODE":337.5622,"ARG_OF_PERICENTER":11.2481,"MEAN_ANOMALY":349.1694,"EPHEMERIS_TYPE":0,"CLASSIFICATION_TYPE":"U","NORAD_CAT_ID":82642,"ELEMENT_SET_NO":999,"REV_AT_EPOCH":62750,"BSTAR":0.0018738,"MEAN_MOTION_DOT":3.4e-5,"MEAN_MOTION_DDOT":0},{"OBJECT_NAME":"UNKNOWN","OBJECT_ID":"","EPOCH":"2026-03-03T15:19:19.435296","MEAN_MOTION":14.20379991,"ECCENTRICITY":0.0210991,"INCLINATION":98.1608,"RA_OF_ASC_NODE":130.4954,"ARG_OF_PERICENTER":158.802,"MEAN_ANOMALY":202.2065,"EPHEMERIS_TYPE":0,"CLASSIFICATION_TYPE":"U","NORAD_CAT_ID":82683,"ELEMENT_SET_NO":999,"REV_AT_EPOCH":47375,"BSTAR":0.00071632,"MEAN_MOTION_DOT":1.88e-5,"MEAN_MOTION_DDOT":0},{"OBJECT_NAME":"UNKNOWN","OBJECT_ID":"","EPOCH":"2026-03-01T17:44:45.331584","MEAN_MOTION":13.69982439,"ECCENTRICITY":0.0038683,"INCLINATION":100.5288,"RA_OF_ASC_NODE":36.5327,"ARG_OF_PERICENTER":187.1107,"MEAN_ANOMALY":172.9491,"EPHEMERIS_TYPE":0,"CLASSIFICATION_TYPE":"U","NORAD_CAT_ID":82693,"ELEMENT_SET_NO":999,"REV_AT_EPOCH":56457,"BSTAR":0.0030752,"MEAN_MOTION_DOT":2.664e-5,"MEAN_MOTION_DDOT":0},{"OBJECT_NAME":"UNKNOWN","OBJECT_ID":"","EPOCH":"2026-02-27T03:14:59.624448","MEAN_MOTION":13.29852878,"ECCENTRICITY":0.0688186,"INCLINATION":61.6122,"RA_OF_ASC_NODE":305.8235,"ARG_OF_PERICENTER":318.1455,"MEAN_ANOMALY":36.8822,"EPHEMERIS_TYPE":0,"CLASSIFICATION_TYPE":"U","NORAD_CAT_ID":82698,"ELEMENT_SET_NO":999,"REV_AT_EPOCH":54853,"BSTAR":0.00069448,"MEAN_MOTION_DOT":1.124e-5,"MEAN_MOTION_DDOT":0},{"OBJECT_NAME":"UNKNOWN","OBJECT_ID":"","EPOCH":"2026-02-26T01:28:04.814976","MEAN_MOTION":12.90719687,"ECCENTRICITY":0.0059414,"INCLINATION":102.1674,"RA_OF_ASC_NODE":272.5145,"ARG_OF_PERICENTER":133.1438,"MEAN_ANOMALY":227.4642,"EPHEMERIS_TYPE":0,"CLASSIFICATION_TYPE":"U","NORAD_CAT_ID":82708,"ELEMENT_SET_NO":999,"REV_AT_EPOCH":53323,"BSTAR":0.0035966,"MEAN_MOTION_DOT":9.05e-6,"MEAN_MOTION_DDOT":0}]
