UNKNOWN                 
1 82432U          26062.65297887  .00002434  00000+0  51427-3 0  9991
2 82432  74.0067 186.2132 0056646 329.6019  30.1865 14.58923513494703
UNKNOWN                 
1 82448U          26062.24092684  .00007271  00000+0  51019-3 0  9992
2 82448  85.8763 156.2988 0006895 343.5278  16.5731 15.04999606449148
UNKNOWN                 
1 82453U          26061.16231985 -.00000008  00000+0  27410-3 0  9997
2 82453 102.1911  22.5113 0094087  60.5465 300.4946 12.39709671555902
UNKNOWN                 
1 82484U          26060.99803636  .00000188  00000+0  32687-3 0  9999
2 82484  99.3518  83.5341 0044370 354.6269   5.4388 13.55829076601371
UNKNOWN                 
1 82494U          26062.42401868  .00025830  00000+0  27015-2 0  9990
2 82494  74.0050 220.6544 0005728 344.3021  15.7982 14.89539870 96963
UNKNOWN                 
1 82500U          26057.76249812  .00002989  00000+0  13530-2 0  9995
2 82500  70.9650 202.8689 0118063 358.4355   1.6382 14.19147272629736
UNKNOWN                 
1 82524U          26062.36176357  .00003499  00000+0  10996-2 0  9996
2 82524  73.2828  27.0019 0132172 153.2330   2.1456 14.36007564588606
UNKNOWN                 
1 82529U          26062.46557038  .00000381  00000+0  64515-3 0  9995
2 82529  99.7802 148.2906 0238752  44.1980  20.3580 13.41190724600563
UNKNOWN                 
1 82560U          26059.34694031  .00001272  00000+0  10557-2 0  9994
2 82560  99.9959  12.6774 0011177  93.7672  58.5374 13.90885057622650
UNKNOWN                 
1 82597U          26060.06834146  .00001389  00000+0  47954-3 0  9999
2 82597  66.7698 301.6808 0098523 253.0275 106.0011 14.36105612640224
UNKNOWN                 
1 82617U          26056.54923146  .00000486  00000+0  13284-3 0  9995
2 82617  74.0253 103.2105 0037817  26.2101 334.0962 14.49523754647667
UNKNOWN                 
1 82627U          26062.32571745  .00000719  00000+0  18517-2 0  9995
2 82627  82.4734 191.1604 0016132 245.7240 144.0414 13.16431080589438
UNKNOWN                 
1 82642U          26062.54981209  .00003400  00000+0  18738-2 0  9991
2 82642  98.9746 337.5622 0136834  11.2481 349.1694 14.07579066627508
UNKNOWN                 
1 82683U          26062.63841939  .00001880  00000+0  71632-3 0  9994
2 82683  98.1608 130.4954 0210991 158.8020 202.2065 14.20379991473751
UNKNOWN                 
1 82693U          26060.73941356  .00002664  00000+0  30752-2 0  9996
2 82693 100.5288  36.5327 0038683 187.1107 172.9491 13.69982439564577
UNKNOWN                 
1 82698U          26058.13541232  .00001124  00000+0  69448-3 0  9996
2 82698  61.6122 305.8235 0688186 318.1455  36.8822 13.29852878548530
UNKNOWN                 
1 82708U          26057.06116684  .00000905  00000+0  35966-2 0  9991
2 82708 102.1674 272.5145 0059414 133.1438 227.4642 12.90719687533233
